{
  "type": "FeatureCollection",
  "features": [
    {
      "type": "Feature",
      "properties": {
        "norad_id": 66459,
        "name": "STARLINK-35449",
        "group": "last-30-days",
        "lat": 39.38256381163565,
        "lon": -122.1576416549677,
        "alt_km": 396.1488087051921,
        "timestamp": "2025-12-04T10:51:48.875651+00:00",
        "meta_object_name": "STARLINK-35449",
        "meta_object_id": "2025-262D",
        "meta_epoch": "2025-12-04T04:00:03.000096",
        "meta_mean_motion": 15.56651635,
        "meta_eccentricity": 0.0001569,
        "meta_inclination": 42.9999,
        "meta_ra_of_asc_node": 121.2852,
        "meta_arg_of_pericenter": 266.549,
        "meta_mean_anomaly": 41.2252,
        "meta_ephemeris_type": 0,
        "meta_classification_type": "U",
        "meta_norad_cat_id": 66459,
        "meta_element_set_no": 999,
        "meta_rev_at_epoch": 426,
        "meta_bstar": -0.03347,
        "meta_mean_motion_dot": -0.02171185,
        "meta_mean_motion_ddot": 0,
        "tle_line1": "1 66459U 25262D   25338.16670139 -.02171185  00000+0 -33470-1 0  9995",
        "tle_line2": "2 66459  42.9999 121.2852 0001569 266.5490  41.2252 15.56651635  4269"
      },
      "geometry": {
        "type": "Point",
        "coordinates": [
          -122.1576416549677,
          39.38256381163565
        ]
      }
    },
    {
      "type": "Feature",
      "properties": {
        "norad_id": 66460,
        "name": "STARLINK-35424",
        "group": "last-30-days",
        "lat": 38.73996608462547,
        "lon": -119.83340285825629,
        "alt_km": 396.2652079125537,
        "timestamp": "2025-12-04T10:51:48.875661+00:00",
        "meta_object_name": "STARLINK-35424",
        "meta_object_id": "2025-262E",
        "meta_epoch": "2025-12-04T04:00:03.000096",
        "meta_mean_motion": 15.56650305,
        "meta_eccentricity": 0.0001583,
        "meta_inclination": 42.9998,
        "meta_ra_of_asc_node": 121.2802,
        "meta_arg_of_pericenter": 269.0171,
        "meta_mean_anomaly": 40.6744,
        "meta_ephemeris_type": 0,
        "meta_classification_type": "U",
        "meta_norad_cat_id": 66460,
        "meta_element_set_no": 999,
        "meta_rev_at_epoch": 426,
        "meta_bstar": -0.033442,
        "meta_mean_motion_dot": -0.02169458,
        "meta_mean_motion_ddot": 0,
        "tle_line1": "1 66460U 25262E   25338.16670139 -.02169458  00000+0 -33442-1 0  9996",
        "tle_line2": "2 66460  42.9998 121.2802 0001583 269.0171  40.6744 15.56650305  4267"
      },
      "geometry": {
        "type": "Point",
        "coordinates": [
          -119.83340285825629,
          38.73996608462547
        ]
      }
    },
    {
      "type": "Feature",
      "properties": {
        "norad_id": 66461,
        "name": "STARLINK-35132",
        "group": "last-30-days",
        "lat": 38.05224547233017,
        "lon": -117.55389709747948,
        "alt_km": 396.35348571628583,
        "timestamp": "2025-12-04T10:51:48.875671+00:00",
        "meta_object_name": "STARLINK-35132",
        "meta_object_id": "2025-262F",
        "meta_epoch": "2025-12-04T04:00:03.000096",
        "meta_mean_motion": 15.56657121,
        "meta_eccentricity": 0.0001626,
        "meta_inclination": 42.9994,
        "meta_ra_of_asc_node": 121.2752,
        "meta_arg_of_pericenter": 266.6744,
        "meta_mean_anomaly": 44.9299,
        "meta_ephemeris_type": 0,
        "meta_classification_type": "U",
        "meta_norad_cat_id": 66461,
        "meta_element_set_no": 999,
        "meta_rev_at_epoch": 426,
        "meta_bstar": -0.033561,
        "meta_mean_motion_dot": -0.02176817,
        "meta_mean_motion_ddot": 0,
        "tle_line1": "1 66461U 25262F   25338.16670139 -.02176817  00000+0 -33561-1 0  9996",
        "tle_line2": "2 66461  42.9994 121.2752 0001626 266.6744  44.9299 15.56657121  4260"
      },
      "geometry": {
        "type": "Point",
        "coordinates": [
          -117.55389709747948,
          38.05224547233017
        ]
      }
    },
    {
      "type": "Feature",
      "properties": {
        "norad_id": 66462,
        "name": "STARLINK-35499",
        "group": "last-30-days",
        "lat": 37.319124463756715,
        "lon": -115.3112430072636,
        "alt_km": 396.3369339747678,
        "timestamp": "2025-12-04T10:51:48.875683+00:00",
        "meta_object_name": "STARLINK-35499",
        "meta_object_id": "2025-262G",
        "meta_epoch": "2025-12-04T04:00:03.000096",
        "meta_mean_motion": 15.56656582,
        "meta_eccentricity": 0.0001486,
        "meta_inclination": 42.9994,
        "meta_ra_of_asc_node": 121.27,
        "meta_arg_of_pericenter": 263.2508,
        "meta_mean_anomaly": 50.2788,
        "meta_ephemeris_type": 0,
        "meta_classification_type": "U",
        "meta_norad_cat_id": 66462,
        "meta_element_set_no": 999,
        "meta_rev_at_epoch": 426,
        "meta_bstar": -0.033668,
        "meta_mean_motion_dot": -0.02182825,
        "meta_mean_motion_ddot": 0,
        "tle_line1": "1 66462U 25262G   25338.16670139 -.02182825  00000+0 -33668-1 0  9991",
        "tle_line2": "2 66462  42.9994 121.2700 0001486 263.2508  50.2788 15.56656582  4262"
      },
      "geometry": {
        "type": "Point",
        "coordinates": [
          -115.3112430072636,
          37.319124463756715
        ]
      }
    },
    {
      "type": "Feature",
      "properties": {
        "norad_id": 66463,
        "name": "STARLINK-35463",
        "group": "last-30-days",
        "lat": 35.736486507243264,
        "lon": -110.97606028024941,
        "alt_km": 396.7952669997949,
        "timestamp": "2025-12-04T10:51:48.875694+00:00",
        "meta_object_name": "STARLINK-35463",
        "meta_object_id": "2025-262H",
        "meta_epoch": "2025-12-04T04:00:03.000096",
        "meta_mean_motion": 15.56644423,
        "meta_eccentricity": 0.0001737,
        "meta_inclination": 42.9996,
        "meta_ra_of_asc_node": 121.2602,
        "meta_arg_of_pericenter": 271.9188,
        "meta_mean_anomaly": 45.4436,
        "meta_ephemeris_type": 0,
        "meta_classification_type": "U",
        "meta_norad_cat_id": 66463,
        "meta_element_set_no": 999,
        "meta_rev_at_epoch": 426,
        "meta_bstar": -0.033326,
        "meta_mean_motion_dot": -0.02162455,
        "meta_mean_motion_ddot": 0,
        "tle_line1": "1 66463U 25262H   25338.16670139 -.02162455  00000+0 -33326-1 0  9990",
        "tle_line2": "2 66463  42.9996 121.2602 0001737 271.9188  45.4436 15.56644423  4262"
      },
      "geometry": {
        "type": "Point",
        "coordinates": [
          -110.97606028024941,
          35.736486507243264
        ]
      }
    },
    {
      "type": "Feature",
      "properties": {
        "norad_id": 66464,
        "name": "STARLINK-35435",
        "group": "last-30-days",
        "lat": 36.54865965815813,
        "lon": -113.12446992892197,
        "alt_km": 396.61789383483756,
        "timestamp": "2025-12-04T10:51:48.875703+00:00",
        "meta_object_name": "STARLINK-35435",
        "meta_object_id": "2025-262J",
        "meta_epoch": "2025-12-04T04:00:03.000096",
        "meta_mean_motion": 15.56651298,
        "meta_eccentricity": 0.0001692,
        "meta_inclination": 42.9995,
        "meta_ra_of_asc_node": 121.2652,
        "meta_arg_of_pericenter": 268.7505,
        "meta_mean_anomaly": 46.6911,
        "meta_ephemeris_type": 0,
        "meta_classification_type": "U",
        "meta_norad_cat_id": 66464,
        "meta_element_set_no": 999,
        "meta_rev_at_epoch": 426,
        "meta_bstar": -0.033454,
        "meta_mean_motion_dot": -0.02170312,
        "meta_mean_motion_ddot": 0,
        "tle_line1": "1 66464U 25262J   25338.16670139 -.02170312  00000+0 -33454-1 0  9994",
        "tle_line2": "2 66464  42.9995 121.2652 0001692 268.7505  46.6911 15.56651298  4263"
      },
      "geometry": {
        "type": "Point",
        "coordinates": [
          -113.12446992892197,
          36.54865965815813
        ]
      }
    },
    {
      "type": "Feature",
      "properties": {
        "norad_id": 66465,
        "name": "STARLINK-35448",
        "group": "last-30-days",
        "lat": 34.00131946370645,
        "lon": -106.811726615138,
        "alt_km": 396.8679098582843,
        "timestamp": "2025-12-04T10:51:48.875714+00:00",
        "meta_object_name": "STARLINK-35448",
        "meta_object_id": "2025-262K",
        "meta_epoch": "2025-12-04T04:00:03.000096",
        "meta_mean_motion": 15.5665152,
        "meta_eccentricity": 0.0001595,
        "meta_inclination": 42.9997,
        "meta_ra_of_asc_node": 121.251,
        "meta_arg_of_pericenter": 266.6151,
        "meta_mean_anomaly": 54.5789,
        "meta_ephemeris_type": 0,
        "meta_classification_type": "U",
        "meta_norad_cat_id": 66465,
        "meta_element_set_no": 999,
        "meta_rev_at_epoch": 426,
        "meta_bstar": -0.033461,
        "meta_mean_motion_dot": -0.02170679,
        "meta_mean_motion_ddot": 0,
        "tle_line1": "1 66465U 25262K   25338.16670139 -.02170679  00000+0 -33461-1 0  9999",
        "tle_line2": "2 66465  42.9997 121.2510 0001595 266.6151  54.5789 15.56651520  4264"
      },
      "geometry": {
        "type": "Point",
        "coordinates": [
          -106.811726615138,
          34.00131946370645
        ]
      }
    }
  ]
}